[
    {
        "Altitude(m)": 717878.1908658626,
        "Argument of Periapsis(deg)": 0.009112096949301655,
        "Eccentricity": 0.0,
        "Inclination(deg)": 45.0,
        "Latitude(deg)": -45.14443281463864,
        "Longitude(deg)": -4.125629054574881,
        "Mean Anomaly(deg)": -88.95522668201528,
        "RAAN(deg)": 184.99139844683344,
        "Satellite Name": "Constellation 1 830",
        "Satellite Number": 830,
        "Semi-Major Axis(m)": 7083131.272910544,
        "Time(s)": 152
    },
    {
        "Altitude(m)": 717877.7122278903,
        "Argument of Periapsis(deg)": 0.009172044955547059,
        "Eccentricity": 0.0,
        "Inclination(deg)": 45.0,
        "Latitude(deg)": -45.14328767524658,
        "Longitude(deg)": -4.044130894249444,
        "Mean Anomaly(deg)": -88.89452554176542,
        "RAAN(deg)": 184.99134185766786,
        "Satellite Name": "Constellation 1 830",
        "Satellite Number": 830,
        "Semi-Major Axis(m)": 7083131.272910544,
        "Time(s)": 153
    },
    {
        "Altitude(m)": 717877.2071995516,
        "Argument of Periapsis(deg)": 0.009231992961792466,
        "Eccentricity": 0.0,
        "Inclination(deg)": 45.0,
        "Latitude(deg)": -45.14207839767287,
        "Longitude(deg)": -3.962636249649162,
        "Mean Anomaly(deg)": -88.83382440151556,
        "RAAN(deg)": 184.9912852685023,
        "Satellite Name": "Constellation 1 830",
        "Satellite Number": 830,
        "Semi-Major Axis(m)": 7083131.272910544,
        "Time(s)": 154
    },
    {
        "Altitude(m)": 717876.6757826847,
        "Argument of Periapsis(deg)": 0.009291940968037872,
        "Eccentricity": 0.0,
        "Inclination(deg)": 45.0,
        "Latitude(deg)": -45.14080498726928,
        "Longitude(deg)": -3.8811453120100894,
        "Mean Anomaly(deg)": -88.77312326126565,
        "RAAN(deg)": 184.9912286793367,
        "Satellite Name": "Constellation 1 830",
        "Satellite Number": 830,
        "Semi-Major Axis(m)": 7083131.272910544,
        "Time(s)": 155
    },
    {
        "Altitude(m)": 717876.1179792446,
        "Argument of Periapsis(deg)": 0.009351888974283276,
        "Eccentricity": 0.0,
        "Inclination(deg)": 45.0,
        "Latitude(deg)": -45.13946744967123,
        "Longitude(deg)": -3.7996584405993716,
        "Mean Anomaly(deg)": -88.71242212101572,
        "RAAN(deg)": 184.99117209017115,
        "Satellite Name": "Constellation 1 830",
        "Satellite Number": 830,
        "Semi-Major Axis(m)": 7083131.272910544,
        "Time(s)": 156
    },
    {
        "Altitude(m)": 717875.5337912615,
        "Argument of Periapsis(deg)": 0.00941183698052868,
        "Eccentricity": 0.0,
        "Inclination(deg)": 45.0,
        "Latitude(deg)": -45.13806579079629,
        "Longitude(deg)": -3.7181754903231825,
        "Mean Anomaly(deg)": -88.65172098076589,
        "RAAN(deg)": 184.99111550100557,
        "Satellite Name": "Constellation 1 830",
        "Satellite Number": 830,
        "Semi-Major Axis(m)": 7083131.272910544,
        "Time(s)": 157
    },
    {
        "Altitude(m)": 717874.9232208831,
        "Argument of Periapsis(deg)": 0.009471784986774088,
        "Eccentricity": 0.0,
        "Inclination(deg)": 45.0,
        "Latitude(deg)": -45.13660001684593,
        "Longitude(deg)": -3.6366968203054655,
        "Mean Anomaly(deg)": -88.59101984051593,
        "RAAN(deg)": 184.99105891184,
        "Satellite Name": "Constellation 1 830",
        "Satellite Number": 830,
        "Semi-Major Axis(m)": 7083131.272910544,
        "Time(s)": 158
    },
    {
        "Altitude(m)": 717874.2862703421,
        "Argument of Periapsis(deg)": 0.009531732993019492,
        "Eccentricity": 0.0,
        "Inclination(deg)": 45.0,
        "Latitude(deg)": -45.13507013430423,
        "Longitude(deg)": -3.5552226214971423,
        "Mean Anomaly(deg)": -88.53031870026605,
        "RAAN(deg)": 184.9910023226744,
        "Satellite Name": "Constellation 1 830",
        "Satellite Number": 830,
        "Semi-Major Axis(m)": 7083131.272910544,
        "Time(s)": 159
    },
    {
        "Altitude(m)": 717873.6229419677,
        "Argument of Periapsis(deg)": 0.009591680999264898,
        "Eccentricity": 0.0,
        "Inclination(deg)": 45.0,
        "Latitude(deg)": -45.13347614993793,
        "Longitude(deg)": -3.473753084768616,
        "Mean Anomaly(deg)": -88.4696175600161,
        "RAAN(deg)": 184.99094573350885,
        "Satellite Name": "Constellation 1 830",
        "Satellite Number": 830,
        "Semi-Major Axis(m)": 7083131.272910544,
        "Time(s)": 160
    },
    {
        "Altitude(m)": 717872.9332381948,
        "Argument of Periapsis(deg)": 0.009651629005510304,
        "Eccentricity": 0.0,
        "Inclination(deg)": 45.0,
        "Latitude(deg)": -45.13181807079638,
        "Longitude(deg)": -3.3922884009076775,
        "Mean Anomaly(deg)": -88.40891641976624,
        "RAAN(deg)": 184.9908891443433,
        "Satellite Name": "Constellation 1 830",
        "Satellite Number": 830,
        "Semi-Major Axis(m)": 7083131.272910544,
        "Time(s)": 161
    },
    {
        "Altitude(m)": 717872.2171615531,
        "Argument of Periapsis(deg)": 0.00971157701175571,
        "Eccentricity": 0.0,
        "Inclination(deg)": 45.0,
        "Latitude(deg)": -45.13009590421138,
        "Longitude(deg)": -3.310828760614754,
        "Mean Anomaly(deg)": -88.34821527951637,
        "RAAN(deg)": 184.99083255517772,
        "Satellite Name": "Constellation 1 830",
        "Satellite Number": 830,
        "Semi-Major Axis(m)": 7083131.272910544,
        "Time(s)": 162
    },
    {
        "Altitude(m)": 717871.4747146646,
        "Argument of Periapsis(deg)": 0.009771525018001118,
        "Eccentricity": 0.0,
        "Inclination(deg)": 45.0,
        "Latitude(deg)": -45.128309657797324,
        "Longitude(deg)": -3.229374522597448,
        "Mean Anomaly(deg)": -88.28751413926642,
        "RAAN(deg)": 184.99077596601217,
        "Satellite Name": "Constellation 1 830",
        "Satellite Number": 830,
        "Semi-Major Axis(m)": 7083131.272910544,
        "Time(s)": 163
    },
    {
        "Altitude(m)": 717870.705900254,
        "Argument of Periapsis(deg)": 0.00983147302424652,
        "Eccentricity": 0.0,
        "Inclination(deg)": 45.0,
        "Latitude(deg)": -45.126459339449745,
        "Longitude(deg)": -3.1479255411791685,
        "Mean Anomaly(deg)": -88.22681299901654,
        "RAAN(deg)": 184.99071937684656,
        "Satellite Name": "Constellation 1 830",
        "Satellite Number": 830,
        "Semi-Major Axis(m)": 7083131.272910544,
        "Time(s)": 164
    },
    {
        "Altitude(m)": 717869.910721145,
        "Argument of Periapsis(deg)": 0.009891421030491928,
        "Eccentricity": 0.0,
        "Inclination(deg)": 45.0,
        "Latitude(deg)": -45.1245449573471,
        "Longitude(deg)": -3.066482174877027,
        "Mean Anomaly(deg)": -88.16611185876664,
        "RAAN(deg)": 184.990662787681,
        "Satellite Name": "Constellation 1 830",
        "Satellite Number": 830,
        "Semi-Major Axis(m)": 7083131.272910544,
        "Time(s)": 165
    },
    {
        "Altitude(m)": 717869.0891802461,
        "Argument of Periapsis(deg)": 0.009951369036737332,
        "Eccentricity": 0.0,
        "Inclination(deg)": 45.0,
        "Latitude(deg)": -45.12256651994931,
        "Longitude(deg)": -2.985044614011255,
        "Mean Anomaly(deg)": -88.10541071851675,
        "RAAN(deg)": 184.99060619851545,
        "Satellite Name": "Constellation 1 830",
        "Satellite Number": 830,
        "Semi-Major Axis(m)": 7083131.272910544,
        "Time(s)": 166
    },
    {
        "Altitude(m)": 717868.2412805828,
        "Argument of Periapsis(deg)": 0.010011317042982738,
        "Eccentricity": 0.0,
        "Inclination(deg)": 45.0,
        "Latitude(deg)": -45.12052403599784,
        "Longitude(deg)": -2.903613048798374,
        "Mean Anomaly(deg)": -88.04470957826688,
        "RAAN(deg)": 184.99054960934987,
        "Satellite Name": "Constellation 1 830",
        "Satellite Number": 830,
        "Semi-Major Axis(m)": 7083131.272910544,
        "Time(s)": 167
    },
    {
        "Altitude(m)": 717867.3670252638,
        "Argument of Periapsis(deg)": 0.010071265049228144,
        "Eccentricity": 0.0,
        "Inclination(deg)": 45.0,
        "Latitude(deg)": -45.1184175145156,
        "Longitude(deg)": -2.8221876693477497,
        "Mean Anomaly(deg)": -87.98400843801691,
        "RAAN(deg)": 184.99049302018432,
        "Satellite Name": "Constellation 1 830",
        "Satellite Number": 830,
        "Semi-Major Axis(m)": 7083131.272910544,
        "Time(s)": 168
    },
    {
        "Altitude(m)": 717866.4664174971,
        "Argument of Periapsis(deg)": 0.01013121305547355,
        "Eccentricity": 0.0,
        "Inclination(deg)": 45.0,
        "Latitude(deg)": -45.116246964806756,
        "Longitude(deg)": -2.7407686656589934,
        "Mean Anomaly(deg)": -87.92330729776707,
        "RAAN(deg)": 184.99043643101876,
        "Satellite Name": "Constellation 1 830",
        "Satellite Number": 830,
        "Semi-Major Axis(m)": 7083131.272910544,
        "Time(s)": 169
    },
    {
        "Altitude(m)": 717865.5394605901,
        "Argument of Periapsis(deg)": 0.010191161061718957,
        "Eccentricity": 0.0,
        "Inclination(deg)": 45.0,
        "Latitude(deg)": -45.11401239645648,
        "Longitude(deg)": -2.6593562276174083,
        "Mean Anomaly(deg)": -87.86260615751715,
        "RAAN(deg)": 184.99037984185316,
        "Satellite Name": "Constellation 1 830",
        "Satellite Number": 830,
        "Semi-Major Axis(m)": 7083131.272910544,
        "Time(s)": 170
    }
]